QIANFAN-73              
1 63159U 25046A   25225.58346711  .00000165  00000+0  23729-3 0  9999
2 63159  88.9864 332.5135 0016980 113.5003 246.7934 13.50961649 31056
QIANFAN-74              
1 63160U 25046B   25225.56700443  .00000168  00000+0  24239-3 0  9995
2 63160  88.9864 332.4037 0001971 106.2793 253.8575 13.50966566 31117
QIANFAN-75              
1 63161U 25046C   25225.55472017  .00000178  00000+0  25677-3 0  9996
2 63161  88.9865 332.6368 0018126 116.4810 243.8203 13.50962826 30987
QIANFAN-76              
1 63162U 25046D   25225.62452787  .00000173  00000+0  24904-3 0  9994
2 63162  88.9865 332.6108 0015692 116.7553 243.5206 13.50959228 31008
QIANFAN-77              
1 63163U 25046E   25225.55556440  .00000343  00000+0  24023-3 0  9999
2 63163  88.9862 331.6187 0016969  99.8743 260.4350 13.96014120 31542
QIANFAN-78              
1 63164U 25046F   25225.59172057  .00000175  00000+0  25214-3 0  9998
2 63164  88.9864 332.4795 0017053 118.9795 241.3068 13.50962474 31070
QIANFAN-79              
1 63165U 25046G   25225.54635636  .00000175  00000+0  25194-3 0  9998
2 63165  88.9867 332.5869 0016737 117.5964 242.6889 13.50964612 31013
QIANFAN-80              
1 63166U 25046H   25225.56292770  .00000170  00000+0  24493-3 0  9995
2 63166  88.9865 332.2955 0015705 121.2499 239.0193 13.50964746 31177
