<?xml version="1.0" encoding="UTF-8"?>
<ndm xmlns:xsi="http://www.w3.org/2001/XMLSchema-instance" xsi:noNamespaceSchemaLocation="https://sanaregistry.org/r/ndmxml_unqualified/ndmxml-2.0.0-master-2.0.xsd">
<omm id="CCSDS_OMM_VERS" version="2.0">
<header><CREATION_DATE/><ORIGINATOR/></header><body><segment><metadata><OBJECT_NAME>QIANFAN-73</OBJECT_NAME><OBJECT_ID>2025-046A</OBJECT_ID><CENTER_NAME>EARTH</CENTER_NAME><REF_FRAME>TEME</REF_FRAME><TIME_SYSTEM>UTC</TIME_SYSTEM><MEAN_ELEMENT_THEORY>SGP4</MEAN_ELEMENT_THEORY></metadata><data><meanElements><EPOCH>2025-08-13T14:00:11.558304</EPOCH><MEAN_MOTION>13.50961649</MEAN_MOTION><ECCENTRICITY>.001698</ECCENTRICITY><INCLINATION>88.9864</INCLINATION><RA_OF_ASC_NODE>332.5135</RA_OF_ASC_NODE><ARG_OF_PERICENTER>113.5003</ARG_OF_PERICENTER><MEAN_ANOMALY>246.7934</MEAN_ANOMALY></meanElements><tleParameters><EPHEMERIS_TYPE>0</EPHEMERIS_TYPE><CLASSIFICATION_TYPE>U</CLASSIFICATION_TYPE><NORAD_CAT_ID>63159</NORAD_CAT_ID><ELEMENT_SET_NO>999</ELEMENT_SET_NO><REV_AT_EPOCH>3105</REV_AT_EPOCH><BSTAR>.23729E-3</BSTAR><MEAN_MOTION_DOT>.165E-5</MEAN_MOTION_DOT><MEAN_MOTION_DDOT>0</MEAN_MOTION_DDOT></tleParameters></data></segment></body></omm>
<omm id="CCSDS_OMM_VERS" version="2.0">
<header><CREATION_DATE/><ORIGINATOR/></header><body><segment><metadata><OBJECT_NAME>QIANFAN-74</OBJECT_NAME><OBJECT_ID>2025-046B</OBJECT_ID><CENTER_NAME>EARTH</CENTER_NAME><REF_FRAME>TEME</REF_FRAME><TIME_SYSTEM>UTC</TIME_SYSTEM><MEAN_ELEMENT_THEORY>SGP4</MEAN_ELEMENT_THEORY></metadata><data><meanElements><EPOCH>2025-08-13T13:36:29.182752</EPOCH><MEAN_MOTION>13.50966566</MEAN_MOTION><ECCENTRICITY>.0001971</ECCENTRICITY><INCLINATION>88.9864</INCLINATION><RA_OF_ASC_NODE>332.4037</RA_OF_ASC_NODE><ARG_OF_PERICENTER>106.2793</ARG_OF_PERICENTER><MEAN_ANOMALY>253.8575</MEAN_ANOMALY></meanElements><tleParameters><EPHEMERIS_TYPE>0</EPHEMERIS_TYPE><CLASSIFICATION_TYPE>U</CLASSIFICATION_TYPE><NORAD_CAT_ID>63160</NORAD_CAT_ID><ELEMENT_SET_NO>999</ELEMENT_SET_NO><REV_AT_EPOCH>3111</REV_AT_EPOCH><BSTAR>.24239E-3</BSTAR><MEAN_MOTION_DOT>.168E-5</MEAN_MOTION_DOT><MEAN_MOTION_DDOT>0</MEAN_MOTION_DDOT></tleParameters></data></segment></body></omm>
<omm id="CCSDS_OMM_VERS" version="2.0">
<header><CREATION_DATE/><ORIGINATOR/></header><body><segment><metadata><OBJECT_NAME>QIANFAN-75</OBJECT_NAME><OBJECT_ID>2025-046C</OBJECT_ID><CENTER_NAME>EARTH</CENTER_NAME><REF_FRAME>TEME</REF_FRAME><TIME_SYSTEM>UTC</TIME_SYSTEM><MEAN_ELEMENT_THEORY>SGP4</MEAN_ELEMENT_THEORY></metadata><data><meanElements><EPOCH>2025-08-13T13:18:47.822688</EPOCH><MEAN_MOTION>13.50962826</MEAN_MOTION><ECCENTRICITY>.0018126</ECCENTRICITY><INCLINATION>88.9865</INCLINATION><RA_OF_ASC_NODE>332.6368</RA_OF_ASC_NODE><ARG_OF_PERICENTER>116.4810</ARG_OF_PERICENTER><MEAN_ANOMALY>243.8203</MEAN_ANOMALY></meanElements><tleParameters><EPHEMERIS_TYPE>0</EPHEMERIS_TYPE><CLASSIFICATION_TYPE>U</CLASSIFICATION_TYPE><NORAD_CAT_ID>63161</NORAD_CAT_ID><ELEMENT_SET_NO>999</ELEMENT_SET_NO><REV_AT_EPOCH>3098</REV_AT_EPOCH><BSTAR>.25677E-3</BSTAR><MEAN_MOTION_DOT>.178E-5</MEAN_MOTION_DOT><MEAN_MOTION_DDOT>0</MEAN_MOTION_DDOT></tleParameters></data></segment></body></omm>
<omm id="CCSDS_OMM_VERS" version="2.0">
<header><CREATION_DATE/><ORIGINATOR/></header><body><segment><metadata><OBJECT_NAME>QIANFAN-76</OBJECT_NAME><OBJECT_ID>2025-046D</OBJECT_ID><CENTER_NAME>EARTH</CENTER_NAME><REF_FRAME>TEME</REF_FRAME><TIME_SYSTEM>UTC</TIME_SYSTEM><MEAN_ELEMENT_THEORY>SGP4</MEAN_ELEMENT_THEORY></metadata><data><meanElements><EPOCH>2025-08-13T14:59:19.207968</EPOCH><MEAN_MOTION>13.50959228</MEAN_MOTION><ECCENTRICITY>.0015692</ECCENTRICITY><INCLINATION>88.9865</INCLINATION><RA_OF_ASC_NODE>332.6108</RA_OF_ASC_NODE><ARG_OF_PERICENTER>116.7553</ARG_OF_PERICENTER><MEAN_ANOMALY>243.5206</MEAN_ANOMALY></meanElements><tleParameters><EPHEMERIS_TYPE>0</EPHEMERIS_TYPE><CLASSIFICATION_TYPE>U</CLASSIFICATION_TYPE><NORAD_CAT_ID>63162</NORAD_CAT_ID><ELEMENT_SET_NO>999</ELEMENT_SET_NO><REV_AT_EPOCH>3100</REV_AT_EPOCH><BSTAR>.24904E-3</BSTAR><MEAN_MOTION_DOT>.173E-5</MEAN_MOTION_DOT><MEAN_MOTION_DDOT>0</MEAN_MOTION_DDOT></tleParameters></data></segment></body></omm>
<omm id="CCSDS_OMM_VERS" version="2.0">
<header><CREATION_DATE/><ORIGINATOR/></header><body><segment><metadata><OBJECT_NAME>QIANFAN-77</OBJECT_NAME><OBJECT_ID>2025-046E</OBJECT_ID><CENTER_NAME>EARTH</CENTER_NAME><REF_FRAME>TEME</REF_FRAME><TIME_SYSTEM>UTC</TIME_SYSTEM><MEAN_ELEMENT_THEORY>SGP4</MEAN_ELEMENT_THEORY></metadata><data><meanElements><EPOCH>2025-08-13T13:20:00.764160</EPOCH><MEAN_MOTION>13.96014120</MEAN_MOTION><ECCENTRICITY>.0016969</ECCENTRICITY><INCLINATION>88.9862</INCLINATION><RA_OF_ASC_NODE>331.6187</RA_OF_ASC_NODE><ARG_OF_PERICENTER>99.8743</ARG_OF_PERICENTER><MEAN_ANOMALY>260.4350</MEAN_ANOMALY></meanElements><tleParameters><EPHEMERIS_TYPE>0</EPHEMERIS_TYPE><CLASSIFICATION_TYPE>U</CLASSIFICATION_TYPE><NORAD_CAT_ID>63163</NORAD_CAT_ID><ELEMENT_SET_NO>999</ELEMENT_SET_NO><REV_AT_EPOCH>3154</REV_AT_EPOCH><BSTAR>.24023E-3</BSTAR><MEAN_MOTION_DOT>.343E-5</MEAN_MOTION_DOT><MEAN_MOTION_DDOT>0</MEAN_MOTION_DDOT></tleParameters></data></segment></body></omm>
<omm id="CCSDS_OMM_VERS" version="2.0">
<header><CREATION_DATE/><ORIGINATOR/></header><body><segment><metadata><OBJECT_NAME>QIANFAN-78</OBJECT_NAME><OBJECT_ID>2025-046F</OBJECT_ID><CENTER_NAME>EARTH</CENTER_NAME><REF_FRAME>TEME</REF_FRAME><TIME_SYSTEM>UTC</TIME_SYSTEM><MEAN_ELEMENT_THEORY>SGP4</MEAN_ELEMENT_THEORY></metadata><data><meanElements><EPOCH>2025-08-13T14:12:04.657248</EPOCH><MEAN_MOTION>13.50962474</MEAN_MOTION><ECCENTRICITY>.0017053</ECCENTRICITY><INCLINATION>88.9864</INCLINATION><RA_OF_ASC_NODE>332.4795</RA_OF_ASC_NODE><ARG_OF_PERICENTER>118.9795</ARG_OF_PERICENTER><MEAN_ANOMALY>241.3068</MEAN_ANOMALY></meanElements><tleParameters><EPHEMERIS_TYPE>0</EPHEMERIS_TYPE><CLASSIFICATION_TYPE>U</CLASSIFICATION_TYPE><NORAD_CAT_ID>63164</NORAD_CAT_ID><ELEMENT_SET_NO>999</ELEMENT_SET_NO><REV_AT_EPOCH>3107</REV_AT_EPOCH><BSTAR>.25214E-3</BSTAR><MEAN_MOTION_DOT>.175E-5</MEAN_MOTION_DOT><MEAN_MOTION_DDOT>0</MEAN_MOTION_DDOT></tleParameters></data></segment></body></omm>
<omm id="CCSDS_OMM_VERS" version="2.0">
<header><CREATION_DATE/><ORIGINATOR/></header><body><segment><metadata><OBJECT_NAME>QIANFAN-79</OBJECT_NAME><OBJECT_ID>2025-046G</OBJECT_ID><CENTER_NAME>EARTH</CENTER_NAME><REF_FRAME>TEME</REF_FRAME><TIME_SYSTEM>UTC</TIME_SYSTEM><MEAN_ELEMENT_THEORY>SGP4</MEAN_ELEMENT_THEORY></metadata><data><meanElements><EPOCH>2025-08-13T13:06:45.189504</EPOCH><MEAN_MOTION>13.50964612</MEAN_MOTION><ECCENTRICITY>.0016737</ECCENTRICITY><INCLINATION>88.9867</INCLINATION><RA_OF_ASC_NODE>332.5869</RA_OF_ASC_NODE><ARG_OF_PERICENTER>117.5964</ARG_OF_PERICENTER><MEAN_ANOMALY>242.6889</MEAN_ANOMALY></meanElements><tleParameters><EPHEMERIS_TYPE>0</EPHEMERIS_TYPE><CLASSIFICATION_TYPE>U</CLASSIFICATION_TYPE><NORAD_CAT_ID>63165</NORAD_CAT_ID><ELEMENT_SET_NO>999</ELEMENT_SET_NO><REV_AT_EPOCH>3101</REV_AT_EPOCH><BSTAR>.25194E-3</BSTAR><MEAN_MOTION_DOT>.175E-5</MEAN_MOTION_DOT><MEAN_MOTION_DDOT>0</MEAN_MOTION_DDOT></tleParameters></data></segment></body></omm>
<omm id="CCSDS_OMM_VERS" version="2.0">
<header><CREATION_DATE/><ORIGINATOR/></header><body><segment><metadata><OBJECT_NAME>QIANFAN-80</OBJECT_NAME><OBJECT_ID>2025-046H</OBJECT_ID><CENTER_NAME>EARTH</CENTER_NAME><REF_FRAME>TEME</REF_FRAME><TIME_SYSTEM>UTC</TIME_SYSTEM><MEAN_ELEMENT_THEORY>SGP4</MEAN_ELEMENT_THEORY></metadata><data><meanElements><EPOCH>2025-08-13T13:30:36.953280</EPOCH><MEAN_MOTION>13.50964746</MEAN_MOTION><ECCENTRICITY>.0015705</ECCENTRICITY><INCLINATION>88.9865</INCLINATION><RA_OF_ASC_NODE>332.2955</RA_OF_ASC_NODE><ARG_OF_PERICENTER>121.2499</ARG_OF_PERICENTER><MEAN_ANOMALY>239.0193</MEAN_ANOMALY></meanElements><tleParameters><EPHEMERIS_TYPE>0</EPHEMERIS_TYPE><CLASSIFICATION_TYPE>U</CLASSIFICATION_TYPE><NORAD_CAT_ID>63166</NORAD_CAT_ID><ELEMENT_SET_NO>999</ELEMENT_SET_NO><REV_AT_EPOCH>3117</REV_AT_EPOCH><BSTAR>.24493E-3</BSTAR><MEAN_MOTION_DOT>.17E-5</MEAN_MOTION_DOT><MEAN_MOTION_DDOT>0</MEAN_MOTION_DDOT></tleParameters></data></segment></body></omm>

</ndm>
